{"type": "FeatureCollection", "features": [ {"type": "Feature", "properties": {"norad_id": 66623, "name": "STARLINK-35920", "group": "last-30-days", "lat": 37.58048134766158, "lon": -9.411585269905549, "alt_km": 362.96963232436065, "timestamp": "2025-12-08T21:31:03.448316+00:00", "meta": {"OBJECT_NAME": "STARLINK-35920", "OBJECT_ID": "2025-271G", "EPOCH": "2025-12-08T14:00:01.999872", "MEAN_MOTION": 15.67971642, "ECCENTRICITY": 0.00012232, "INCLINATION": 53.1594, "RA_OF_ASC_NODE": 207.3654, "ARG_OF_PERICENTER": 94.6676, "MEAN_ANOMALY": 67.342, "EPHEMERIS_TYPE": 0, "CLASSIFICATION_TYPE": "U", "NORAD_CAT_ID": 66623, "ELEMENT_SET_NO": 999, "REV_AT_EPOCH": 357, "BSTAR": -0.019068414, "MEAN_MOTION_DOT": -0.01907098, "MEAN_MOTION_DDOT": 0}, "tle": {"line1": "1 66623U 25271G   25342.58335648 -.01907098  00000+0 -19068-1 0  9998", "line2": "2 66623  53.1594 207.3654 0001223  94.6676  67.3420 15.67971642  3570"}}, "geometry": {"type": "Point", "coordinates": [-9.411585269905549, 37.58048134766158]}}, {"type": "Feature", "properties": {"norad_id": 66624, "name": "STARLINK-35927", "group": "last-30-days", "lat": 38.822319580528976, "lon": -11.27510706024773, "alt_km": 362.7825283658285, "timestamp": "2025-12-08T21:31:03.448326+00:00", "meta": {"OBJECT_NAME": "STARLINK-35927", "OBJECT_ID": "2025-271H", "EPOCH": "2025-12-08T14:00:01.999872", "MEAN_MOTION": 15.67985021, "ECCENTRICITY": 0.0001107, "INCLINATION": 53.1595, "RA_OF_ASC_NODE": 207.3697, "ARG_OF_PERICENTER": 100.5786, "MEAN_ANOMALY": 59.5044, "EPHEMERIS_TYPE": 0, "CLASSIFICATION_TYPE": "U", "NORAD_CAT_ID": 66624, "ELEMENT_SET_NO": 999, "REV_AT_EPOCH": 357, "BSTAR": -0.019224086, "MEAN_MOTION_DOT": -0.01921736, "MEAN_MOTION_DDOT": 0}, "tle": {"line1": "1 66624U 25271H   25342.58335648 -.01921736  00000+0 -19224-1 0  9998", "line2": "2 66624  53.1595 207.3697 0001107 100.5786  59.5044 15.67985021  3570"}}, "geometry": {"type": "Point", "coordinates": [-11.27510706024773, 38.822319580528976]}}, {"type": "Feature", "properties": {"norad_id": 66625, "name": "STARLINK-35929", "group": "last-30-days", "lat": 36.31396812022439, "lon": -7.615136516387728, "alt_km": 363.1451570665495, "timestamp": "2025-12-08T21:31:03.448338+00:00", "meta": {"OBJECT_NAME": "STARLINK-35929", "OBJECT_ID": "2025-271J", "EPOCH": "2025-12-08T14:00:01.999872", "MEAN_MOTION": 15.67984428, "ECCENTRICITY": 0.0001149, "INCLINATION": 53.1592, "RA_OF_ASC_NODE": 207.3614, "ARG_OF_PERICENTER": 107.2554, "MEAN_ANOMALY": 56.663, "EPHEMERIS_TYPE": 0, "CLASSIFICATION_TYPE": "U", "NORAD_CAT_ID": 66625, "ELEMENT_SET_NO": 999, "REV_AT_EPOCH": 357, "BSTAR": -0.019233182, "MEAN_MOTION_DOT": -0.0192253, "MEAN_MOTION_DDOT": 0}, "tle": {"line1": "1 66625U 25271J   25342.58335648 -.01922530  00000+0 -19233-1 0  9992", "line2": "2 66625  53.1592 207.3614 0001149 107.2554  56.6630 15.67984428  3579"}}, "geometry": {"type": "Point", "coordinates": [-7.615136516387728, 36.31396812022439]}}, {"type": "Feature", "properties": {"norad_id": 66626, "name": "STARLINK-35902", "group": "last-30-days", "lat": 35.0202189813189, "lon": -5.874863288497037, "alt_km": 363.3563597144348, "timestamp": "2025-12-08T21:31:03.448350+00:00", "meta": {"OBJECT_NAME": "STARLINK-35902", "OBJECT_ID": "2025-271K", "EPOCH": "2025-12-08T14:00:01.999872", "MEAN_MOTION": 15.67986943, "ECCENTRICITY": 0.0001163, "INCLINATION": 53.1596, "RA_OF_ASC_NODE": 207.3571, "ARG_OF_PERICENTER": 106.5558, "MEAN_ANOMALY": 59.2762, "EPHEMERIS_TYPE": 0, "CLASSIFICATION_TYPE": "U", "NORAD_CAT_ID": 66626, "ELEMENT_SET_NO": 999, "REV_AT_EPOCH": 357, "BSTAR": -0.019245059, "MEAN_MOTION_DOT": -0.01923767, "MEAN_MOTION_DDOT": 0}, "tle": {"line1": "1 66626U 25271K   25342.58335648 -.01923767  00000+0 -19245-1 0  9999", "line2": "2 66626  53.1596 207.3571 0001163 106.5558  59.2762 15.67986943  3577"}}, "geometry": {"type": "Point", "coordinates": [-5.874863288497037, 35.0202189813189]}}, {"type": "Feature", "properties": {"norad_id": 66627, "name": "STARLINK-35904", "group": "last-30-days", "lat": 33.702466394093314, "lon": -4.190507197213148, "alt_km": 363.6332771206271, "timestamp": "2025-12-08T21:31:03.448360+00:00", "meta": {"OBJECT_NAME": "STARLINK-35904", "OBJECT_ID": "2025-271L", "EPOCH": "2025-12-08T14:00:01.999872", "MEAN_MOTION": 15.67985829, "ECCENTRICITY": 0.00010678, "INCLINATION": 53.1595, "RA_OF_ASC_NODE": 207.3526, "ARG_OF_PERICENTER": 107.7598, "MEAN_ANOMALY": 59.989, "EPHEMERIS_TYPE": 0, "CLASSIFICATION_TYPE": "U", "NORAD_CAT_ID": 66627, "ELEMENT_SET_NO": 999, "REV_AT_EPOCH": 341, "BSTAR": -0.019228584, "MEAN_MOTION_DOT": -0.01922163, "MEAN_MOTION_DDOT": 0}, "tle": {"line1": "1 66627U 25271L   25342.58335648 -.01922163  00000+0 -19229-1 0  9991", "line2": "2 66627  53.1595 207.3526 0001067 107.7598  59.9890 15.67985829  3411"}}, "geometry": {"type": "Point", "coordinates": [-4.190507197213148, 33.702466394093314]}}, {"type": "Feature", "properties": {"norad_id": 66628, "name": "STARLINK-35862", "group": "last-30-days", "lat": 32.36030173251414, "lon": -2.553941852629698, "alt_km": 363.76690101829354, "timestamp": "2025-12-08T21:31:03.448370+00:00", "meta": {"OBJECT_NAME": "STARLINK-35862", "OBJECT_ID": "2025-271M", "EPOCH": "2025-12-08T14:00:01.999872", "MEAN_MOTION": 15.679873, "ECCENTRICITY": 0.00012119, "INCLINATION": 53.1595, "RA_OF_ASC_NODE": 207.3491, "ARG_OF_PERICENTER": 109.6763, "MEAN_ANOMALY": 59.9904, "EPHEMERIS_TYPE": 0, "CLASSIFICATION_TYPE": "U", "NORAD_CAT_ID": 66628, "ELEMENT_SET_NO": 999, "REV_AT_EPOCH": 357, "BSTAR": -0.019263103, "MEAN_MOTION_DOT": -0.01925423, "MEAN_MOTION_DDOT": 0}, "tle": {"line1": "1 66628U 25271M   25342.58335648 -.01925423  00000+0 -19263-1 0  9992", "line2": "2 66628  53.1595 207.3491 0001211 109.6763  59.9904 15.67987300  3578"}}, "geometry": {"type": "Point", "coordinates": [-2.553941852629698, 32.36030173251414]}}, {"type": "Feature", "properties": {"norad_id": 66629, "name": "STARLINK-35956", "group": "last-30-days", "lat": 30.998562964227244, "lon": -0.9672064479455642, "alt_km": 364.0295127114523, "timestamp": "2025-12-08T21:31:03.448380+00:00", "meta": {"OBJECT_NAME": "STARLINK-35956", "OBJECT_ID": "2025-271N", "EPOCH": "2025-12-08T14:00:01.999872", "MEAN_MOTION": 15.67985559, "ECCENTRICITY": 0.00011962, "INCLINATION": 53.1593, "RA_OF_ASC_NODE": 207.3455, "ARG_OF_PERICENTER": 107.041, "MEAN_ANOMALY": 64.5432, "EPHEMERIS_TYPE": 0, "CLASSIFICATION_TYPE": "U", "NORAD_CAT_ID": 66629, "ELEMENT_SET_NO": 999, "REV_AT_EPOCH": 357, "BSTAR": -0.019233346, "MEAN_MOTION_DOT": -0.01922657, "MEAN_MOTION_DDOT": 0}, "tle": {"line1": "1 66629U 25271N   25342.58335648 -.01922657  00000+0 -19233-1 0  9996", "line2": "2 66629  53.1593 207.3455 0001196 107.0410  64.5432 15.67985559  3572"}}, "geometry": {"type": "Point", "coordinates": [-0.9672064479455642, 30.998562964227244]}}, {"type": "Feature", "properties": {"norad_id": 66630, "name": "STARLINK-35949", "group": "last-30-days", "lat": 29.619079489919248, "lon": 0.5720483513903958, "alt_km": 364.2615263120915, "timestamp": "2025-12-08T21:31:03.448390+00:00", "meta": {"OBJECT_NAME": "STARLINK-35949", "OBJECT_ID": "2025-271P", "EPOCH": "2025-12-08T14:00:01.999872", "MEAN_MOTION": 15.67983988, "ECCENTRICITY": 0.00011615, "INCLINATION": 53.159, "RA_OF_ASC_NODE": 207.3409, "ARG_OF_PERICENTER": 111.1446, "MEAN_ANOMALY": 62.357, "EPHEMERIS_TYPE": 0, "CLASSIFICATION_TYPE": "U", "NORAD_CAT_ID": 66630, "ELEMENT_SET_NO": 999, "REV_AT_EPOCH": 357, "BSTAR": -0.019214016, "MEAN_MOTION_DOT": -0.01920812, "MEAN_MOTION_DDOT": 0}, "tle": {"line1": "1 66630U 25271P   25342.58335648 -.01920812  00000+0 -19214-1 0  9998", "line2": "2 66630  53.1590 207.3409 0001161 111.1446  62.3570 15.67983988  3570"}}, "geometry": {"type": "Point", "coordinates": [0.5720483513903958, 29.619079489919248]}}, {"type": "Feature", "properties": {"norad_id": 66631, "name": "STARLINK-35965", "group": "last-30-days", "lat": 28.22291999629392, "lon": 2.0701916824439155, "alt_km": 364.57185599613786, "timestamp": "2025-12-08T21:31:03.448402+00:00", "meta": {"OBJECT_NAME": "STARLINK-35965", "OBJECT_ID": "2025-271Q", "EPOCH": "2025-12-08T14:00:01.999872", "MEAN_MOTION": 15.67981891, "ECCENTRICITY": 0.00010348, "INCLINATION": 53.1593, "RA_OF_ASC_NODE": 207.3373, "ARG_OF_PERICENTER": 112.3454, "MEAN_ANOMALY": 63.0735, "EPHEMERIS_TYPE": 0, "CLASSIFICATION_TYPE": "U", "NORAD_CAT_ID": 66631, "ELEMENT_SET_NO": 999, "REV_AT_EPOCH": 357, "BSTAR": -0.019189046, "MEAN_MOTION_DOT": -0.01918365, "MEAN_MOTION_DDOT": 0}, "tle": {"line1": "1 66631U 25271Q   25342.58335648 -.01918365  00000+0 -19189-1 0  9990", "line2": "2 66631  53.1593 207.3373 0001034 112.3454  63.0735 15.67981891  3577"}}, "geometry": {"type": "Point", "coordinates": [2.0701916824439155, 28.22291999629392]}}, {"type": "Feature", "properties": {"norad_id": 66632, "name": "STARLINK-35973", "group": "last-30-days", "lat": 26.80675549386226, "lon": 3.5328153037245165, "alt_km": 364.7795702508056, "timestamp": "2025-12-08T21:31:03.448412+00:00", "meta": {"OBJECT_NAME": "STARLINK-35973", "OBJECT_ID": "2025-271R", "EPOCH": "2025-12-08T14:00:01.999872", "MEAN_MOTION": 15.67986922, "ECCENTRICITY": 0.00011936, "INCLINATION": 53.1595, "RA_OF_ASC_NODE": 207.3332, "ARG_OF_PERICENTER": 105.213, "MEAN_ANOMALY": 72.121, "EPHEMERIS_TYPE": 0, "CLASSIFICATION_TYPE": "U", "NORAD_CAT_ID": 66632, "ELEMENT_SET_NO": 999, "REV_AT_EPOCH": 351, "BSTAR": -0.019247774, "MEAN_MOTION_DOT": -0.01924027, "MEAN_MOTION_DDOT": 0}, "tle": {"line1": "1 66632U 25271R   25342.58335648 -.01924027  00000+0 -19248-1 0  9999", "line2": "2 66632  53.1595 207.3332 0001193 105.2130  72.1210 15.67986922  3516"}}, "geometry": {"type": "Point", "coordinates": [3.5328153037245165, 26.80675549386226]}}]}